{"type": "FeatureCollection", "features": [ {"type": "Feature", "properties": {"norad_id": 60989, "name": "SENTINEL-2C", "group": "resource", "lat": 68.97254215105214, "lon": 41.52072737022837, "alt_km": 781.4709433382086, "timestamp": "2025-12-18T04:58:34.238595+00:00", "meta": {"OBJECT_NAME": "SENTINEL-2C", "OBJECT_ID": "2024-157A", "EPOCH": "2025-12-17T18:34:37.041312", "MEAN_MOTION": 14.30819545, "ECCENTRICITY": 0.00012286, "INCLINATION": 98.5679, "RA_OF_ASC_NODE": 64.184, "ARG_OF_PERICENTER": 96.8159, "MEAN_ANOMALY": 263.3164, "EPHEMERIS_TYPE": 0, "CLASSIFICATION_TYPE": "U", "NORAD_CAT_ID": 60989, "ELEMENT_SET_NO": 999, "REV_AT_EPOCH": 6704, "BSTAR": 6.1542021e-05, "MEAN_MOTION_DOT": 1.18e-06, "MEAN_MOTION_DDOT": 0}, "tle": {"line1": "1 60989U 24157A   25351.77403983  .00000118  00000+0  61542-4 0  9999", "line2": "2 60989  98.5679  64.1840 0001228  96.8159 263.3164 14.30819545 67044"}}, "geometry": {"type": "Point", "coordinates": [41.52072737022837, 68.97254215105214]}}, {"type": "Feature", "properties": {"norad_id": 61735, "name": "IONOSFERA-M 1", "group": "resource", "lat": 1.9405865335218768, "lon": 42.312061906253, "alt_km": 819.3352982787956, "timestamp": "2025-12-18T04:58:34.238606+00:00", "meta": {"OBJECT_NAME": "IONOSFERA-M 1", "OBJECT_ID": "2024-199A", "EPOCH": "2025-12-17T23:04:44.279040", "MEAN_MOTION": 14.22715174, "ECCENTRICITY": 7.064e-05, "INCLINATION": 98.7401, "RA_OF_ASC_NODE": 221.7697, "ARG_OF_PERICENTER": 13.84, "MEAN_ANOMALY": 346.2797, "EPHEMERIS_TYPE": 0, "CLASSIFICATION_TYPE": "U", "NORAD_CAT_ID": 61735, "ELEMENT_SET_NO": 999, "REV_AT_EPOCH": 10193, "BSTAR": 4.3052235e-05, "MEAN_MOTION_DOT": 5.2e-07, "MEAN_MOTION_DDOT": 0}, "tle": {"line1": "1 61735U 24199A   25351.96162360  .00000052  00000+0  43052-4 0  9990", "line2": "2 61735  98.7401 221.7697 0000706  13.8400 346.2797 14.22715174101932"}}, "geometry": {"type": "Point", "coordinates": [42.312061906253, 1.9405865335218768]}}, {"type": "Feature", "properties": {"norad_id": 61736, "name": "IONOSFERA-M 2", "group": "resource", "lat": 0.4802654767526104, "lon": -138.14805692987773, "alt_km": 819.3078348368508, "timestamp": "2025-12-18T04:58:34.238616+00:00", "meta": {"OBJECT_NAME": "IONOSFERA-M 2", "OBJECT_ID": "2024-199B", "EPOCH": "2025-12-17T22:13:20.777088", "MEAN_MOTION": 14.22717355, "ECCENTRICITY": 0.00017629, "INCLINATION": 98.7407, "RA_OF_ASC_NODE": 221.6467, "ARG_OF_PERICENTER": 104.0103, "MEAN_ANOMALY": 256.1271, "EPHEMERIS_TYPE": 0, "CLASSIFICATION_TYPE": "U", "NORAD_CAT_ID": 61736, "ELEMENT_SET_NO": 999, "REV_AT_EPOCH": 10505, "BSTAR": 4.6360569e-05, "MEAN_MOTION_DOT": 6e-07, "MEAN_MOTION_DDOT": 0}, "tle": {"line1": "1 61736U 24199B   25351.92593492  .00000060  00000+0  46361-4 0  9996", "line2": "2 61736  98.7407 221.6467 0001762 104.0103 256.1271 14.22717355105055"}}, "geometry": {"type": "Point", "coordinates": [-138.14805692987773, 0.4802654767526104]}}, {"type": "Feature", "properties": {"norad_id": 63772, "name": "BIOMASS", "group": "resource", "lat": -6.461571089855297, "lon": 178.05772019615574, "alt_km": 672.6889459534214, "timestamp": "2025-12-18T04:58:34.238626+00:00", "meta": {"OBJECT_NAME": "BIOMASS", "OBJECT_ID": "2025-090A", "EPOCH": "2025-12-17T14:16:42.550752", "MEAN_MOTION": 14.67537674, "ECCENTRICITY": 0.00011398, "INCLINATION": 98.0698, "RA_OF_ASC_NODE": 176.5338, "ARG_OF_PERICENTER": 82.0444, "MEAN_ANOMALY": 278.089, "EPHEMERIS_TYPE": 0, "CLASSIFICATION_TYPE": "U", "NORAD_CAT_ID": 63772, "ELEMENT_SET_NO": 999, "REV_AT_EPOCH": 3405, "BSTAR": 0.0001678642, "MEAN_MOTION_DOT": 9.04e-06, "MEAN_MOTION_DDOT": 0}, "tle": {"line1": "1 63772U 25090A   25351.59493693  .00000904  00000+0  16786-3 0  9998", "line2": "2 63772  98.0698 176.5338 0001139  82.0444 278.0890 14.67537674 34052"}}, "geometry": {"type": "Point", "coordinates": [178.05772019615574, -6.461571089855297]}}, {"type": "Feature", "properties": {"norad_id": 64694, "name": "GOSAT-GW (IBUKI GW)", "group": "resource", "lat": -23.460618147551113, "lon": 104.1027815835389, "alt_km": 674.857353108514, "timestamp": "2025-12-18T04:58:34.238636+00:00", "meta": {"OBJECT_NAME": "GOSAT-GW (IBUKI GW)", "OBJECT_ID": "2025-141A", "EPOCH": "2025-12-17T23:08:32.693856", "MEAN_MOTION": 14.67563407, "ECCENTRICITY": 0.00014365, "INCLINATION": 98.0432, "RA_OF_ASC_NODE": 287.3825, "ARG_OF_PERICENTER": 83.6786, "MEAN_ANOMALY": 276.4583, "EPHEMERIS_TYPE": 0, "CLASSIFICATION_TYPE": "U", "NORAD_CAT_ID": 64694, "ELEMENT_SET_NO": 999, "REV_AT_EPOCH": 2526, "BSTAR": 0.0001486248, "MEAN_MOTION_DOT": 7.96e-06, "MEAN_MOTION_DDOT": 0}, "tle": {"line1": "1 64694U 25141A   25351.96426729  .00000796  00000+0  14862-3 0  9998", "line2": "2 64694  98.0432 287.3825 0001436  83.6786 276.4583 14.67563407 25267"}}, "geometry": {"type": "Point", "coordinates": [104.1027815835389, -23.460618147551113]}}, {"type": "Feature", "properties": {"norad_id": 64876, "name": "IONOSFERA-M 3", "group": "resource", "lat": 19.39098966425753, "lon": -49.12692673311753, "alt_km": 819.2851175209125, "timestamp": "2025-12-18T04:58:34.238647+00:00", "meta": {"OBJECT_NAME": "IONOSFERA-M 3", "OBJECT_ID": "2025-155A", "EPOCH": "2025-12-17T22:07:35.964192", "MEAN_MOTION": 14.21442287, "ECCENTRICITY": 0.00020957, "INCLINATION": 98.5789, "RA_OF_ASC_NODE": 313.6415, "ARG_OF_PERICENTER": 51.4754, "MEAN_ANOMALY": 308.6611, "EPHEMERIS_TYPE": 0, "CLASSIFICATION_TYPE": "U", "NORAD_CAT_ID": 64876, "ELEMENT_SET_NO": 999, "REV_AT_EPOCH": 2065, "BSTAR": 4.2056361e-05, "MEAN_MOTION_DOT": 4.9e-07, "MEAN_MOTION_DDOT": 0}, "tle": {"line1": "1 64876U 25155A   25351.92194403  .00000049  00000+0  42056-4 0  9990", "line2": "2 64876  98.5789 313.6415 0002095  51.4754 308.6611 14.21442287 20657"}}, "geometry": {"type": "Point", "coordinates": [-49.12692673311753, 19.39098966425753]}}, {"type": "Feature", "properties": {"norad_id": 64877, "name": "IONOSFERA-M 4", "group": "resource", "lat": -20.302134344588367, "lon": 130.63687869854846, "alt_km": 826.4745535596458, "timestamp": "2025-12-18T04:58:34.238659+00:00", "meta": {"OBJECT_NAME": "IONOSFERA-M 4", "OBJECT_ID": "2025-155B", "EPOCH": "2025-12-17T22:58:05.331360", "MEAN_MOTION": 14.21443479, "ECCENTRICITY": 0.00014825, "INCLINATION": 98.5787, "RA_OF_ASC_NODE": 313.595, "ARG_OF_PERICENTER": 58.3134, "MEAN_ANOMALY": 301.8189, "EPHEMERIS_TYPE": 0, "CLASSIFICATION_TYPE": "U", "NORAD_CAT_ID": 64877, "ELEMENT_SET_NO": 999, "REV_AT_EPOCH": 2065, "BSTAR": 4.2549903e-05, "MEAN_MOTION_DOT": 5e-07, "MEAN_MOTION_DDOT": 0}, "tle": {"line1": "1 64877U 25155B   25351.95700615  .00000050  00000+0  42550-4 0  9993", "line2": "2 64877  98.5787 313.5950 0001482  58.3134 301.8189 14.21443479 20655"}}, "geometry": {"type": "Point", "coordinates": [130.63687869854846, -20.302134344588367]}}, {"type": "Feature", "properties": {"norad_id": 64899, "name": "MICROCARB", "group": "resource", "lat": -81.991085987146, "lon": 158.55649593644523, "alt_km": 671.4481242429729, "timestamp": "2025-12-18T04:58:34.238669+00:00", "meta": {"OBJECT_NAME": "MICROCARB", "OBJECT_ID": "2025-156A", "EPOCH": "2025-12-17T17:58:01.525728", "MEAN_MOTION": 14.72065231, "ECCENTRICITY": 0.0017424, "INCLINATION": 98.0022, "RA_OF_ASC_NODE": 67.0137, "ARG_OF_PERICENTER": 129.5895, "MEAN_ANOMALY": 230.6855, "EPHEMERIS_TYPE": 0, "CLASSIFICATION_TYPE": "U", "NORAD_CAT_ID": 64899, "ELEMENT_SET_NO": 999, "REV_AT_EPOCH": 2127, "BSTAR": 9.9454238e-05, "MEAN_MOTION_DOT": 5.77e-06, "MEAN_MOTION_DDOT": 0}, "tle": {"line1": "1 64899U 25156A   25351.74862877  .00000577  00000+0  99454-4 0  9993", "line2": "2 64899  98.0022  67.0137 0017424 129.5895 230.6855 14.72065231 21272"}}, "geometry": {"type": "Point", "coordinates": [158.55649593644523, -81.991085987146]}}, {"type": "Feature", "properties": {"norad_id": 64900, "name": "CO3D 3", "group": "resource", "lat": 2.6840937475559112, "lon": -111.15332843900032, "alt_km": 508.04052505274103, "timestamp": "2025-12-18T04:58:34.238679+00:00", "meta": {"OBJECT_NAME": "CO3D 3", "OBJECT_ID": "2025-156B", "EPOCH": "2025-12-17T21:52:49.539936", "MEAN_MOTION": 15.20205468, "ECCENTRICITY": 0.00013203, "INCLINATION": 97.4345, "RA_OF_ASC_NODE": 68.2045, "ARG_OF_PERICENTER": 82.4945, "MEAN_ANOMALY": 277.644, "EPHEMERIS_TYPE": 0, "CLASSIFICATION_TYPE": "U", "NORAD_CAT_ID": 64900, "ELEMENT_SET_NO": 999, "REV_AT_EPOCH": 2199, "BSTAR": 6.5141997e-05, "MEAN_MOTION_DOT": 1.343e-05, "MEAN_MOTION_DDOT": 0}, "tle": {"line1": "1 64900U 25156B   25351.91168449  .00001343  00000+0  65142-4 0  9998", "line2": "2 64900  97.4345  68.2045 0001320  82.4945 277.6440 15.20205468 21990"}}, "geometry": {"type": "Point", "coordinates": [-111.15332843900032, 2.6840937475559112]}}, {"type": "Feature", "properties": {"norad_id": 64901, "name": "CO3D 4", "group": "resource", "lat": 3.603541542755525, "lon": -111.03233776184935, "alt_km": 506.97429541648035, "timestamp": "2025-12-18T04:58:34.238689+00:00", "meta": {"OBJECT_NAME": "CO3D 4", "OBJECT_ID": "2025-156C", "EPOCH": "2025-12-17T23:27:50.922144", "MEAN_MOTION": 15.20215608, "ECCENTRICITY": 0.00011842, "INCLINATION": 97.4345, "RA_OF_ASC_NODE": 68.2701, "ARG_OF_PERICENTER": 178.6753, "MEAN_ANOMALY": 181.4485, "EPHEMERIS_TYPE": 0, "CLASSIFICATION_TYPE": "U", "NORAD_CAT_ID": 64901, "ELEMENT_SET_NO": 999, "REV_AT_EPOCH": 2200, "BSTAR": 0.00024181959, "MEAN_MOTION_DOT": 5.173e-05, "MEAN_MOTION_DDOT": 0}, "tle": {"line1": "1 64901U 25156C   25351.97767271  .00005173  00000+0  24182-3 0  9996", "line2": "2 64901  97.4345  68.2701 0001184 178.6753 181.4485 15.20215608 22004"}}, "geometry": {"type": "Point", "coordinates": [-111.03233776184935, 3.603541542755525]}}]}